BEIDOU-2 G1             
1 36287U 10001A   24020.56051781 -.00000278  00000+0  00000+0 0  9995
2 36287   2.2956  55.7382 0005179 280.3245 125.5779  1.00274132 51369
SDO                     
1 36395U 10005A   24020.22582826 -.00000095  00000+0  00000+0 0  9998
2 36395  32.8180  99.9274 0002552 210.3612 147.6959  1.00268559 51248
INTELSAT 16 (IS-16)     
1 36397U 10006A   24020.44643579 -.00000240  00000+0  00000+0 0  9990
2 36397   0.0161  72.8240 0002263 226.4871 264.5036  1.00271604 50848
ECHOSTAR 14             
1 36499U 10010A   24020.59836730  .00000005  00000+0  00000+0 0  9995
2 36499   0.0225  58.0823 0002070 225.1971 292.6985  1.00271552 37749
SES-1                   
1 36516U 10016A   24020.61465601 -.00000110  00000+0  00000+0 0  9997
2 36516   0.0348 303.1473 0002560 352.6707 303.9174  1.00270845 50225
ASTRA 3B                
1 36581U 10021A   24020.25080380  .00000141  00000+0  00000+0 0  9995
2 36581   0.0456  16.2711 0001806 298.3027 278.3146  1.00270123 50062
BEIDOU-2 G3             
1 36590U 10024A   24020.47680194 -.00000133  00000+0  00000+0 0  9993
2 36590   2.4755  59.3285 0007233 318.5063 352.6485  1.00274261 49954
COMS 1                  
1 36744U 10032A   24020.55808118 -.00000343  00000+0  00000+0 0  9993
2 36744   2.5547  86.7120 0001086 197.1406 164.6114  1.00272874 42286
ARABSAT-5A              
1 36745U 10032B   24020.46688135  .00000158  00000+0  00000+0 0  9992
2 36745   0.0587  49.2369 0002726 269.3741 359.2791  1.00268709 49832
ECHOSTAR 15             
1 36792U 10034A   24020.51624084 -.00000277  00000+0  00000+0 0  9998
2 36792   0.0578 268.3597 0002494   6.4696 328.7452  1.00270412 49516
BEIDOU-2 IGSO-1         
1 36828U 10036A   24020.33939299 -.00000085  00000+0  00000+0 0  9994
2 36828  54.2468 170.9150 0038896 192.3809 346.7161  1.00269854 49395
AEHF-1 (USA 214)        
1 36868U 10039A   24019.96044144  .00000024  00000+0  00000+0 0  9996
2 36868   6.0052  79.2388 0002006 151.9717 237.3990  1.00274412 44846
XM-5                    
1 37185U 10053A   24020.42467508 -.00000018  00000+0  00000+0 0  9995
2 37185   0.0351 270.6468 0001145 273.6803 332.6368  1.00270739 48673
BSAT-3B                 
1 37207U 10056B   24020.50813471 -.00000346  00000+0  00000+0 0  9990
2 37207   0.0926 288.3661 0005075  20.1829 103.5829  1.00271744 43293
BEIDOU-2 G4             
1 37210U 10057A   24020.63567594 -.00000109  00000+0  00000+0 0  9998
2 37210   1.4925  66.0713 0007596 195.3299 247.0108  1.00272006 48488
SKYTERRA 1              
1 37218U 10061A   24020.61477057 -.00000115  00000+0  00000+0 0  9990
2 37218   3.3374  46.4787 0002789 230.3424 322.6630  1.00271117 48388
HYLAS 1                 
1 37237U 10065A   24020.63188794 -.00000143  00000+0  00000+0 0  9995
2 37237   3.3959  83.6727 0002126 220.8250 198.8798  1.00270979 48171
INTELSAT 17 (IS-17)     
1 37238U 10065B   24020.47410424  .00000003  00000+0  00000+0 0  9990
2 37238   0.0091  33.7328 0002518 280.6800  41.5938  1.00271590 44420
BEIDOU-2 IGSO-2         
1 37256U 10068A   24019.72538448 -.00000196  00000+0  00000+0 0  9990
2 37256  49.1524 282.6385 0031684 213.8148 348.4521  1.00298066 47979
EUTELSAT KA-SAT 9A      
1 37258U 10069A   24020.39099749  .00000066  00000+0  00000+0 0  9999
2 37258   0.0612 278.1582 0002307   1.1315 349.6800  1.00274215 35181
HISPASAT 30W-5          
1 37264U 10070A   24020.45495924 -.00000212  00000+0  00000+0 0  9994
2 37264   0.0356 109.5943 0002902 183.6861 319.8171  1.00270433 44373
KOREASAT 6              
1 37265U 10070B   24020.54841043 -.00000358  00000+0  00000+0 0  9993
2 37265   0.0204 106.8117 0002939 193.7604 132.2538  1.00272184 47952
BEIDOU-2 IGSO-3         
1 37384U 11013A   24018.01924644 -.00000180  00000+0  00000+0 0  9994
2 37384  61.1348  48.5701 0028665 183.6346 357.5535  1.00296498 46825
YAHSAT 1A               
1 37393U 11016B   24020.47140653  .00000105  00000+0  00000+0 0  9996
2 37393   0.0186  93.2160 0002918 210.7298  37.5621  1.00271274 33590
SBIRS GEO-1 (USA 230)   
1 37481U 11019A   24020.47401720 -.00000002  00000+0  00000+0 0  9999
2 37481   2.7160  45.8238 0002249 254.2937  55.5603  1.00272040 46583
