OBJECT_NAME,OBJECT_ID,EPOCH,MEAN_MOTION,ECCENTRICITY,INCLINATION,RA_OF_ASC_NODE,ARG_OF_PERICENTER,MEAN_ANOMALY,EPHEMERIS_TYPE,CLASSIFICATION_TYPE,NORAD_CAT_ID,ELEMENT_SET_NO,REV_AT_EPOCH,BSTAR,MEAN_MOTION_DOT,MEAN_MOTION_DDOT
BEIDOU-2 G1,2010-001A,2024-01-20T13:27:08.738784,1.00274132,.0005179,2.2956,55.7382,280.3245,125.5779,0,U,36287,999,5136,0,-.278E-5,0
SDO,2010-005A,2024-01-20T05:25:11.561664,1.00268559,.0002552,32.8180,99.9274,210.3612,147.6959,0,U,36395,999,5124,0,-.95E-6,0
INTELSAT 16 (IS-16),2010-006A,2024-01-20T10:42:52.052256,1.00271604,.0002263,0.0161,72.8240,226.4871,264.5036,0,U,36397,999,5084,0,-.24E-5,0
ECHOSTAR 14,2010-010A,2024-01-20T14:21:38.934720,1.00271552,.000207,0.0225,58.0823,225.1971,292.6985,0,U,36499,999,3774,0,.5E-7,0
SES-1,2010-016A,2024-01-20T14:45:06.279264,1.00270845,.000256,0.0348,303.1473,352.6707,303.9174,0,U,36516,999,5022,0,-.11E-5,0
ASTRA 3B,2010-021A,2024-01-20T06:01:09.448320,1.00270123,.0001806,0.0456,16.2711,298.3027,278.3146,0,U,36581,999,5006,0,.141E-5,0
BEIDOU-2 G3,2010-024A,2024-01-20T11:26:35.687616,1.00274261,.0007233,2.4755,59.3285,318.5063,352.6485,0,U,36590,999,4995,0,-.133E-5,0
COMS 1,2010-032A,2024-01-20T13:23:38.213952,1.00272874,.0001086,2.5547,86.7120,197.1406,164.6114,0,U,36744,999,4228,0,-.343E-5,0
ARABSAT-5A,2010-032B,2024-01-20T11:12:18.548640,1.00268709,.0002726,0.0587,49.2369,269.3741,359.2791,0,U,36745,999,4983,0,.158E-5,0
ECHOSTAR 15,2010-034A,2024-01-20T12:23:23.208576,1.00270412,.0002494,0.0578,268.3597,6.4696,328.7452,0,U,36792,999,4951,0,-.277E-5,0
BEIDOU-2 IGSO-1,2010-036A,2024-01-20T08:08:43.554336,1.00269854,.0038896,54.2468,170.9150,192.3809,346.7161,0,U,36828,999,4939,0,-.85E-6,0
AEHF-1 (USA 214),2010-039A,2024-01-19T23:03:02.140416,1.00274412,.0002006,6.0052,79.2388,151.9717,237.3990,0,U,36868,999,4484,0,.24E-6,0
XM-5,2010-053A,2024-01-20T10:11:31.926912,1.00270739,.0001145,0.0351,270.6468,273.6803,332.6368,0,U,37185,999,4863,0,-.18E-6,0
BSAT-3B,2010-056B,2024-01-20T12:11:42.838944,1.00271744,.0005075,0.0926,288.3661,20.1829,103.5829,0,U,37207,999,4329,0,-.346E-5,0
BEIDOU-2 G4,2010-057A,2024-01-20T15:15:22.401216,1.00272006,.0007596,1.4925,66.0713,195.3299,247.0108,0,U,37210,999,4848,0,-.109E-5,0
SKYTERRA 1,2010-061A,2024-01-20T14:45:16.177248,1.00271117,.0002789,3.3374,46.4787,230.3424,322.6630,0,U,37218,999,4838,0,-.115E-5,0
HYLAS 1,2010-065A,2024-01-20T15:09:55.118016,1.00270979,.0002126,3.3959,83.6727,220.8250,198.8798,0,U,37237,999,4817,0,-.143E-5,0
INTELSAT 17 (IS-17),2010-065B,2024-01-20T11:22:42.606336,1.00271590,.0002518,0.0091,33.7328,280.6800,41.5938,0,U,37238,999,4442,0,.3E-7,0
BEIDOU-2 IGSO-2,2010-068A,2024-01-19T17:24:33.219072,1.00298066,.0031684,49.1524,282.6385,213.8148,348.4521,0,U,37256,999,4797,0,-.196E-5,0
EUTELSAT KA-SAT 9A,2010-069A,2024-01-20T09:23:02.183136,1.00274215,.0002307,0.0612,278.1582,1.1315,349.6800,0,U,37258,999,3518,0,.66E-6,0
HISPASAT 30W-5,2010-070A,2024-01-20T10:55:08.478336,1.00270433,.0002902,0.0356,109.5943,183.6861,319.8171,0,U,37264,999,4437,0,-.212E-5,0
KOREASAT 6,2010-070B,2024-01-20T13:09:42.661152,1.00272184,.0002939,0.0204,106.8117,193.7604,132.2538,0,U,37265,999,4795,0,-.358E-5,0
BEIDOU-2 IGSO-3,2011-013A,2024-01-18T00:27:42.892416,1.00296498,.0028665,61.1348,48.5701,183.6346,357.5535,0,U,37384,999,4682,0,-.18E-5,0
YAHSAT 1A,2011-016B,2024-01-20T11:18:49.524192,1.00271274,.0002918,0.0186,93.2160,210.7298,37.5621,0,U,37393,999,3359,0,.105E-5,0
SBIRS GEO-1 (USA 230),2011-019A,2024-01-20T11:22:35.086080,1.00272040,.0002249,2.7160,45.8238,254.2937,55.5603,0,U,37481,999,4658,0,-.2E-7,0
